[{"OBJECT_NAME":"STARLINK-30711","OBJECT_ID":"2023-148F","EPOCH":"2026-03-09T04:47:33.837216","MEAN_MOTION":15.30189821,"ECCENTRICITY":0.00012697,"INCLINATION":53.1624,"RA_OF_ASC_NODE":26.7448,"ARG_OF_PERICENTER":108.4163,"MEAN_ANOMALY":251.6976,"EPHEMERIS_TYPE":0,"CLASSIFICATION_TYPE":"U","NORAD_CAT_ID":57940,"ELEMENT_SET_NO":999,"REV_AT_EPOCH":13834,"BSTAR":-5.0051e-7,"MEAN_MOTION_DOT":-3.74e-6,"MEAN_MOTION_DDOT":0},{"OBJECT_NAME":"POEM","OBJECT_ID":"2022-072E","EPOCH":"2026-03-08T08:06:01.299456","MEAN_MOTION":15.22764653,"ECCENTRICITY":0.00236837,"INCLINATION":9.9515,"RA_OF_ASC_NODE":116.6548,"ARG_OF_PERICENTER":142.2805,"MEAN_ANOMALY":217.9074,"EPHEMERIS_TYPE":0,"CLASSIFICATION_TYPE":"U","NORAD_CAT_ID":52939,"ELEMENT_SET_NO":999,"REV_AT_EPOCH":20410,"BSTAR":0.00045784559,"MEAN_MOTION_DOT":0.00012084,"MEAN_MOTION_DDOT":0}]
